{"type": "FeatureCollection", "features": [ {"type": "Feature", "properties": {"norad_id": 37216, "name": "COSMO-SKYMED 4", "group": "resource", "lat": -80.28832657296539, "lon": -139.41441176732232, "alt_km": 630.7892505917071, "timestamp": "2025-12-11T05:00:25.967825+00:00", "meta": {"OBJECT_NAME": "COSMO-SKYMED 4", "OBJECT_ID": "2010-060A", "EPOCH": "2025-12-10T22:54:22.546368", "MEAN_MOTION": 14.82167901, "ECCENTRICITY": 0.00014289, "INCLINATION": 97.8807, "RA_OF_ASC_NODE": 166.3045, "ARG_OF_PERICENTER": 78.4819, "MEAN_ANOMALY": 281.6554, "EPHEMERIS_TYPE": 0, "CLASSIFICATION_TYPE": "U", "NORAD_CAT_ID": 37216, "ELEMENT_SET_NO": 999, "REV_AT_EPOCH": 81668, "BSTAR": 0.00019324512, "MEAN_MOTION_DOT": 1.487e-05, "MEAN_MOTION_DDOT": 0}, "tle": {"line1": "1 37216U 10060A   25344.95442762  .00001487  00000+0  19325-3 0  9995", "line2": "2 37216  97.8807 166.3045 0001428  78.4819 281.6554 14.82167901816686"}}, "geometry": {"type": "Point", "coordinates": [-139.41441176732232, -80.28832657296539]}}, {"type": "Feature", "properties": {"norad_id": 37387, "name": "RESOURCESAT-2", "group": "resource", "lat": -33.58988234051503, "lon": -137.12955152977136, "alt_km": 830.6623568162167, "timestamp": "2025-12-11T05:00:25.967836+00:00", "meta": {"OBJECT_NAME": "RESOURCESAT-2", "OBJECT_ID": "2011-015A", "EPOCH": "2025-12-10T21:14:50.889408", "MEAN_MOTION": 14.21596008, "ECCENTRICITY": 0.00065226, "INCLINATION": 98.7879, "RA_OF_ASC_NODE": 48.4454, "ARG_OF_PERICENTER": 47.4184, "MEAN_ANOMALY": 312.7543, "EPHEMERIS_TYPE": 0, "CLASSIFICATION_TYPE": "U", "NORAD_CAT_ID": 37387, "ELEMENT_SET_NO": 999, "REV_AT_EPOCH": 75942, "BSTAR": 0.00012128818, "MEAN_MOTION_DOT": 2.21e-06, "MEAN_MOTION_DDOT": 0}, "tle": {"line1": "1 37387U 11015A   25344.88531122  .00000221  00000+0  12129-3 0  9996", "line2": "2 37387  98.7879  48.4454 0006522  47.4184 312.7543 14.21596008759428"}}, "geometry": {"type": "Point", "coordinates": [-137.12955152977136, -33.58988234051503]}}, {"type": "Feature", "properties": {"norad_id": 37781, "name": "HAIYANG-2A", "group": "resource", "lat": 42.08838296642673, "lon": 174.7126471124529, "alt_km": 963.7611151395195, "timestamp": "2025-12-11T05:00:25.967846+00:00", "meta": {"OBJECT_NAME": "HAIYANG-2A", "OBJECT_ID": "2011-043A", "EPOCH": "2025-12-10T23:07:11.883072", "MEAN_MOTION": 13.78835221, "ECCENTRICITY": 0.00016445, "INCLINATION": 99.338, "RA_OF_ASC_NODE": 345.9247, "ARG_OF_PERICENTER": 85.4562, "MEAN_ANOMALY": 274.6778, "EPHEMERIS_TYPE": 0, "CLASSIFICATION_TYPE": "U", "NORAD_CAT_ID": 37781, "ELEMENT_SET_NO": 999, "REV_AT_EPOCH": 72074, "BSTAR": 0.00011144301, "MEAN_MOTION_DOT": 6.9e-07, "MEAN_MOTION_DDOT": 0}, "tle": {"line1": "1 37781U 11043A   25344.96333198  .00000069  00000+0  11144-3 0  9993", "line2": "2 37781  99.3380 345.9247 0001644  85.4562 274.6778 13.78835221720740"}}, "geometry": {"type": "Point", "coordinates": [174.7126471124529, 42.08838296642673]}}, {"type": "Feature", "properties": {"norad_id": 37791, "name": "RASAT", "group": "resource", "lat": 55.273228147502, "lon": -93.70697076927667, "alt_km": 653.4895133019518, "timestamp": "2025-12-11T05:00:25.967856+00:00", "meta": {"OBJECT_NAME": "RASAT", "OBJECT_ID": "2011-044D", "EPOCH": "2025-12-10T22:28:49.560672", "MEAN_MOTION": 14.67905398, "ECCENTRICITY": 0.00219264, "INCLINATION": 98.0649, "RA_OF_ASC_NODE": 74.221, "ARG_OF_PERICENTER": 70.281, "MEAN_ANOMALY": 57.1019, "EPHEMERIS_TYPE": 0, "CLASSIFICATION_TYPE": "U", "NORAD_CAT_ID": 37791, "ELEMENT_SET_NO": 999, "REV_AT_EPOCH": 76556, "BSTAR": 0.00018054371, "MEAN_MOTION_DOT": 9.87e-06, "MEAN_MOTION_DDOT": 0}, "tle": {"line1": "1 37791U 11044D   25344.93668473  .00000987  00000+0  18054-3 0  9995", "line2": "2 37791  98.0649  74.2210 0021926  70.2810  57.1019 14.67905398765563"}}, "geometry": {"type": "Point", "coordinates": [-93.70697076927667, 55.273228147502]}}, {"type": "Feature", "properties": {"norad_id": 37841, "name": "SRMSAT", "group": "resource", "lat": -5.824693411843728, "lon": -46.465958287867515, "alt_km": 853.9509362964664, "timestamp": "2025-12-11T05:00:25.967866+00:00", "meta": {"OBJECT_NAME": "SRMSAT", "OBJECT_ID": "2011-058D", "EPOCH": "2025-12-10T16:20:28.552992", "MEAN_MOTION": 14.11510466, "ECCENTRICITY": 0.00117159, "INCLINATION": 19.9705, "RA_OF_ASC_NODE": 120.4116, "ARG_OF_PERICENTER": 290.6404, "MEAN_ANOMALY": 99.2293, "EPHEMERIS_TYPE": 0, "CLASSIFICATION_TYPE": "U", "NORAD_CAT_ID": 37841, "ELEMENT_SET_NO": 999, "REV_AT_EPOCH": 73115, "BSTAR": 0.00014227219, "MEAN_MOTION_DOT": 5.27e-06, "MEAN_MOTION_DDOT": 0}, "tle": {"line1": "1 37841U 11058D   25344.68088603  .00000527  00000+0  14227-3 0  9997", "line2": "2 37841  19.9705 120.4116 0011715 290.6404  99.2293 14.11510466731151"}}, "geometry": {"type": "Point", "coordinates": [-46.465958287867515, -5.824693411843728]}}, {"type": "Feature", "properties": {"norad_id": 38012, "name": "PLEIADES 1A", "group": "resource", "lat": -29.590154430594136, "lon": 62.68680812700658, "alt_km": 703.9560731767178, "timestamp": "2025-12-11T05:00:25.967876+00:00", "meta": {"OBJECT_NAME": "PLEIADES 1A", "OBJECT_ID": "2011-076F", "EPOCH": "2025-12-10T23:21:06.710976", "MEAN_MOTION": 14.58558107, "ECCENTRICITY": 0.00013263, "INCLINATION": 98.1822, "RA_OF_ASC_NODE": 57.7684, "ARG_OF_PERICENTER": 73.357, "MEAN_ANOMALY": 100.2764, "EPHEMERIS_TYPE": 0, "CLASSIFICATION_TYPE": "U", "NORAD_CAT_ID": 38012, "ELEMENT_SET_NO": 999, "REV_AT_EPOCH": 74455, "BSTAR": 0.00012561853, "MEAN_MOTION_DOT": 5.38e-06, "MEAN_MOTION_DDOT": 0}, "tle": {"line1": "1 38012U 11076F   25344.97299434  .00000538  00000+0  12562-3 0  9998", "line2": "2 38012  98.1822  57.7684 0001326  73.3570 100.2764 14.58558107744559"}}, "geometry": {"type": "Point", "coordinates": [62.68680812700658, -29.590154430594136]}}, {"type": "Feature", "properties": {"norad_id": 38038, "name": "ZIYUAN 1-02C (ZY 1-02C)", "group": "resource", "lat": -8.987301075487727, "lon": 52.59448105215726, "alt_km": 773.5572795086646, "timestamp": "2025-12-11T05:00:25.967886+00:00", "meta": {"OBJECT_NAME": "ZIYUAN 1-02C (ZY 1-02C)", "OBJECT_ID": "2011-079A", "EPOCH": "2025-12-10T23:10:17.560128", "MEAN_MOTION": 14.38008231, "ECCENTRICITY": 0.00070754, "INCLINATION": 98.433, "RA_OF_ASC_NODE": 51.0114, "ARG_OF_PERICENTER": 142.9864, "MEAN_ANOMALY": 30.0512, "EPHEMERIS_TYPE": 0, "CLASSIFICATION_TYPE": "U", "NORAD_CAT_ID": 38038, "ELEMENT_SET_NO": 999, "REV_AT_EPOCH": 73215, "BSTAR": 0.00022619542, "MEAN_MOTION_DOT": 6.41e-06, "MEAN_MOTION_DDOT": 0}, "tle": {"line1": "1 38038U 11079A   25344.96548102  .00000641  00000+0  22620-3 0  9998", "line2": "2 38038  98.4330  51.0114 0007075 142.9864  30.0512 14.38008231732155"}}, "geometry": {"type": "Point", "coordinates": [52.59448105215726, -8.987301075487727]}}, {"type": "Feature", "properties": {"norad_id": 38046, "name": "ZIYUAN 3-1 (ZY 3-1)", "group": "resource", "lat": 30.805984353739245, "lon": -124.1020813528871, "alt_km": 363.4921243454719, "timestamp": "2025-12-11T05:00:25.967897+00:00", "meta": {"OBJECT_NAME": "ZIYUAN 3-1 (ZY 3-1)", "OBJECT_ID": "2012-001A", "EPOCH": "2025-12-10T22:14:56.444352", "MEAN_MOTION": 15.68191209, "ECCENTRICITY": 0.00018453, "INCLINATION": 97.1753, "RA_OF_ASC_NODE": 51.3018, "ARG_OF_PERICENTER": 359.7682, "MEAN_ANOMALY": 0.3579, "EPHEMERIS_TYPE": 0, "CLASSIFICATION_TYPE": "U", "NORAD_CAT_ID": 38046, "ELEMENT_SET_NO": 999, "REV_AT_EPOCH": 77468, "BSTAR": 0.00085517398, "MEAN_MOTION_DOT": 0.00096102, "MEAN_MOTION_DDOT": 0}, "tle": {"line1": "1 38046U 12001A   25344.92704218  .00096102  00000+0  85517-3 0  9992", "line2": "2 38046  97.1753  51.3018 0001845 359.7682   0.3579 15.68191209774689"}}, "geometry": {"type": "Point", "coordinates": [-124.1020813528871, 30.805984353739245]}}, {"type": "Feature", "properties": {"norad_id": 38338, "name": "ARIRANG-3 (KOMPSAT-3)", "group": "resource", "lat": -29.96163919119283, "lon": 114.94042141655609, "alt_km": 696.2763156516567, "timestamp": "2025-12-11T05:00:25.967908+00:00", "meta": {"OBJECT_NAME": "ARIRANG-3 (KOMPSAT-3)", "OBJECT_ID": "2012-025B", "EPOCH": "2025-12-10T23:07:10.302816", "MEAN_MOTION": 14.61708913, "ECCENTRICITY": 0.00054818, "INCLINATION": 98.3319, "RA_OF_ASC_NODE": 299.5394, "ARG_OF_PERICENTER": 344.6044, "MEAN_ANOMALY": 15.4989, "EPHEMERIS_TYPE": 0, "CLASSIFICATION_TYPE": "U", "NORAD_CAT_ID": 38338, "ELEMENT_SET_NO": 999, "REV_AT_EPOCH": 72384, "BSTAR": 0.00020236479, "MEAN_MOTION_DOT": 9.6e-06, "MEAN_MOTION_DDOT": 0}, "tle": {"line1": "1 38338U 12025B   25344.96331369  .00000960  00000+0  20236-3 0  9993", "line2": "2 38338  98.3319 299.5394 0005481 344.6044  15.4989 14.61708913723844"}}, "geometry": {"type": "Point", "coordinates": [114.94042141655609, -29.96163919119283]}}, {"type": "Feature", "properties": {"norad_id": 38709, "name": "EXACTVIEW-1 (ADS-1B)", "group": "resource", "lat": 49.73999938591922, "lon": 82.82517023006089, "alt_km": 799.4447653636016, "timestamp": "2025-12-11T05:00:25.967918+00:00", "meta": {"OBJECT_NAME": "EXACTVIEW-1 (ADS-1B)", "OBJECT_ID": "2012-039C", "EPOCH": "2025-12-10T13:36:13.296384", "MEAN_MOTION": 14.24906733, "ECCENTRICITY": 0.0010782, "INCLINATION": 98.9635, "RA_OF_ASC_NODE": 92.9113, "ARG_OF_PERICENTER": 0.5572, "MEAN_ANOMALY": 359.5616, "EPHEMERIS_TYPE": 0, "CLASSIFICATION_TYPE": "U", "NORAD_CAT_ID": 38709, "ELEMENT_SET_NO": 999, "REV_AT_EPOCH": 69584, "BSTAR": 0.00014175, "MEAN_MOTION_DOT": 2.85e-06, "MEAN_MOTION_DDOT": 0}, "tle": {"line1": "1 38709U 12039C   25344.56682056  .00000285  00000+0  14175-3 0  9993", "line2": "2 38709  98.9635  92.9113 0010782   0.5572 359.5616 14.24906733695847"}}, "geometry": {"type": "Point", "coordinates": [82.82517023006089, 49.73999938591922]}}]}